[{"OBJECT_NAME":"STARLINK-6344","OBJECT_ID":"2023-065T","EPOCH":"2026-03-08T09:59:00.813696","MEAN_MOTION":15.02537575,"ECCENTRICITY":0.0001736,"INCLINATION":43.0028,"RA_OF_ASC_NODE":217.2146,"ARG_OF_PERICENTER":270.1952,"MEAN_ANOMALY":89.8691,"EPHEMERIS_TYPE":0,"CLASSIFICATION_TYPE":"U","NORAD_CAT_ID":56520,"ELEMENT_SET_NO":999,"REV_AT_EPOCH":15643,"BSTAR":0.00019132915,"MEAN_MOTION_DOT":2.382e-5,"MEAN_MOTION_DDOT":0},{"OBJECT_NAME":"CZ-2D R\/B","OBJECT_ID":"2010-027B","EPOCH":"2026-03-09T19:01:31.304352","MEAN_MOTION":15.02332282,"ECCENTRICITY":0.00475082,"INCLINATION":97.9913,"RA_OF_ASC_NODE":95.0303,"ARG_OF_PERICENTER":252.3591,"MEAN_ANOMALY":107.2442,"EPHEMERIS_TYPE":0,"CLASSIFICATION_TYPE":"U","NORAD_CAT_ID":36597,"ELEMENT_SET_NO":999,"REV_AT_EPOCH":85595,"BSTAR":0.00022535675,"MEAN_MOTION_DOT":2.983e-5,"MEAN_MOTION_DDOT":0}]
